#dP2023  2 22  0  0  0.00000000      96 __u+U ITR00 EXT  IAC
## 2250 259200.00000000   900.00000000 59997 0.0000000000000
+  120   C06C07C08C09C10C11C12C13C14C16C19C20C21C22C23C24C25
+        C26C27C28C29C30C32C33C34C35C36C37C38C39C40C41C42C43
+        C44C45C46E01E02E03E04E05E07E08E09E10E11E12E13E14E15
+        E18E19E21E24E25E26E27E30E31E33E34E36G01G02G03G04G05
+        G06G07G08G09G10G11G12G13G14G15G16G17G18G19G20G21G22
+        G23G24G25G26G27G28G29G30G31G32J02J03J04R01R02R03R04
+        R05R07R08R09R11R12R13R14R15R16R17R18R19R20R21R22R24
+        R25  0  0  0  0  0  0  0  0  0  0  0  0  0  0  0  0
++         0  0  0  0  0 12  9  0  9  0  9  8  9 10  7  6  7
++         9 10  9 11  9  9  8 12 11  7 10  0  0  0  9 10  9
++        11  9  9  7  7  7  9  6  8  8  7  9  6  7 11  8  8
++        10  7  8  8  8  7  7  7  7  7  7  7  7  7  7  8  7
++         7  8  7  7  7  7  7  7  6  7  6  6  7  7  7  8  7
++         7  7  7  7  7  7  8  7  7  8  7 10  8  9  9  9  7
++         8  7  8 10  8  8  9  7  7  8  9  8  8 10  7  7  9
++        10  0  0  0  0  0  0  0  0  0  0  0  0  0  0  0  0
%c M  cc GPS ccc cccc cccc cccc cccc ccccc ccccc ccccc ccccc
%c cc cc ccc ccc cccc cccc cccc cccc ccccc ccccc ccccc ccccc
%f  0.0000000  0.000000000  0.00000000000  0.000000000000000
%f  0.0000000  0.000000000  0.00000000000  0.000000000000000
%i    0    0    0    0      0      0      0      0         0
%i    0    0    0    0      0      0      0      0         0
/* IAC                                ULTRA-RAPID PREDICTION
/* S/V CLOCKS ARE ALIGNED TO GNSS TIME                      
/* G:C1WC2W R:C1PC2P E:C1XC5X C:C2IC6I J:C1CC2S             
/* PCV:IGS20_2247 OL/AL:FES2004  NONE     YN ORB:CoN CLK:CoN
*  2023 02 22  3 30  0.00000000
PC06 -18977.997487  29940.356798  22635.124972   -192.018097
PC07  -6497.324263  39440.610964  13699.804920     78.803507
PC08  -2326.835028  21684.894640 -36049.788436    524.571556
PC09 -10253.508583  28859.043865  29140.662105    773.363651
PC10  -1193.228186  41678.131489   8163.914502      6.053254
PC11  23030.719853  -6510.544764 -14270.900515   -106.991771
PC12  12535.984501   9402.501742 -23051.094102    466.524126
PC13   3460.799809  24757.556406 -33730.397045    213.533992
PC14  16076.931306    692.243424  22825.602910    508.350332
PC16 -20538.983310  29736.264393  21676.515369    156.313699
PC19 -13371.493595  10422.981687 -22138.919121   -894.618653
PC20 -16142.147633  -9673.872058 -20579.121430    712.542129
PC21   9331.346482  25515.824492   6442.631604   -910.090396
PC22  -2794.800323  25505.300698 -10998.466416   -620.501765
PC23   6542.833441 -14991.921580 -22613.447984   -879.923198
PC24  25875.451288  10285.793686   1592.538789   -380.170751
PC25  22486.708455  -4702.108427 -15840.530546     76.097045
PC26  15054.823072  17059.252333  16116.266867    -82.203665
PC27  -5007.220840 -16006.069993  22288.599691    100.401259
PC28  11914.141164 -21711.710705  12868.534994     73.233143
PC29 -22609.722335  15384.776896   5532.484248     84.347644
PC30 -19438.991293  -1124.406501  19974.393474      1.086182
PC32  -9461.389729 -25470.907611  -6320.530271   -615.874782
PC33  13403.079115 -10367.100930  22178.913725   -872.130045
PC34  20151.030354    -21.689121 -19326.957195    111.493277
PC35 -12053.092754  22158.903459 -11898.322722    676.376663
PC36 -23029.924135   3659.681969  15350.469848   -609.147407
PC37 -13325.230706 -17630.698961 -17050.129398   -815.802190
PC38 -12114.851792  19657.202007 -35237.846402     60.419827
PC39 -25035.892148  30194.015443  15195.487639     -1.903934
PC40 -10915.003420  37076.339688  17094.547609    -15.740167
PC41   3192.162363 -25202.482044  11602.841085   -640.942285
PC42  16104.842675  11045.124661  19990.426698   -823.574964
PC43  22852.892544 -14761.223407  -6285.475622      8.384409
PC44   5554.428091  16014.109747 -22173.831406     22.981866
PC45  -6080.872452  15028.392522  22706.045414    -63.526265
PC46 -26350.258968  -9256.513823     43.338224    -35.106115
PE01  -6554.088620 -24541.225984 -15212.756174   -600.246242
PE02   6946.260418  24627.881151  14850.029390     22.250103
PE03  -2662.149150  27658.393798  10213.359486   -652.425523
PE04 -11193.480017 -15449.247205 -22625.177283    -63.553380
PE05 -15287.400530  23870.718206  -8515.152474    -93.019604
PE07  18792.169283  -6052.724619  22059.283157    -24.747502
PE08  11004.970174  15538.268989  22667.066769    -40.040103
PE09 -18634.025139   5943.461219 -22216.287577   -844.715591
PE10 -26673.322472  -3419.060409  12365.438063   -514.145826
PE11 -29292.583198   3544.384140   2209.625660    981.798778
PE12 -20138.888128  -9401.479504  19540.193558   -431.348898
PE13  29287.730496  -3045.831955  -3082.254620     -0.439688
PE14 -15753.914813  -3755.846748  18833.283449    149.061650
PE15  19882.917157   9472.454895 -19773.574155     -2.785080
PE18  14998.842156  14151.893861 -23808.638982   -362.673568
PE19   4772.470769 -28139.009445  -7854.913478  -3175.292412
PE21   9451.339579 -14471.534196 -24038.012606   -513.567038
PE24 -21695.501509  -5538.541935  19353.609614  -1127.563970
PE25  -9729.891607  14183.596715  24086.250510   -599.898186
PE26  20770.149842 -13995.785205  15787.928530     25.501955
PE27  21425.095111   4611.093939 -19893.702440   -518.181597
PE30  20340.953466  21210.614424  -3466.467171  -1262.121664
PE31 -20668.636625 -20802.701416   4068.444909   -516.696391
PE33   1215.390790 -16315.816169  24676.283838   -451.329736
PE34   -982.036860  16296.976109 -24691.654591    -31.359667
PE36 -21421.689278  13622.455568 -15203.897398    -16.041075
PG01   8006.603127  13606.509830 -21736.727375    209.885644
PG02 -11555.390999 -12503.178707  20954.527020   -619.200125
PG03  12094.093981  23058.827512  -5667.498610   -360.131638
PG04   3118.454116  20322.489252  16761.003357    -22.264378
PG05    130.768514 -19539.152520  17765.525377   -116.842750
PG06  25615.989060  -5605.324009   4601.761429    575.035710
PG07  21209.971078   8217.269016  14540.723061    236.465686
PG08  -5207.025599  24962.974531  -6713.120598   -109.661265
PG09  11759.724163  10689.062187  21200.774071   -213.718301
PG10 -18635.670329  -4457.524462 -18351.338959    -25.727633
PG11  17234.451372 -12163.869659  16129.798405   -110.819486
PG12  -9045.573934 -24001.343741  -7372.380527   -343.266592
PG13  13039.950926 -22980.901627  -1448.316354    479.954166
PG14  19379.960986   7115.771847 -16776.601231    -21.333569
PG15   1633.713225 -25454.194747  -7332.560108     15.568353
PG16  -4514.542575  17707.552993  18798.496883   -518.965492
PG17  16936.333473  -3648.843160 -19730.449776    701.524627
PG18 -23490.657344  -5577.312938  11235.212499   -150.768416
PG19  18460.765372 -12925.904944 -14059.720822    280.935415
PG20   9273.778134 -12594.487618  21511.699615    449.218216
PG21   -856.704160  15175.762887 -21113.491992    154.114442
PG22 -17451.231676  16564.199535 -10616.049607    431.897263
PG23 -19931.198550 -14546.370494 -10013.945256      7.222771
PG24  -3969.574101 -15476.223698 -21576.692193    -83.849978
PG25 -16630.541176 -20850.059138   1186.013710    422.123052
PG26 -14520.101177   6899.002451  21062.267194    241.670333
PG27 -12723.534662  22721.057875   3674.063068     96.680181
PG28 -25892.426714   5394.580201   2365.667970     21.663422
PG29  -8193.261311 -14306.821723  20756.596799   -587.404170
PG30  26538.273072   -333.309569   3038.313710   -529.476789
PG31 -25242.827302   6475.079175   6085.580732   -209.893138
PG32 -17275.603454   7011.866706 -18670.797962   -403.465741
PJ02 -26317.749602  21705.565465  29820.034625     -0.977227
PJ03 -35521.219895  21270.852929  -3472.075429      0.390282
PJ04 -19032.482191  29217.616864 -18489.152758     94.233997
PR01  -2885.094398 -24943.336440  -4457.795893     23.483326
PR02  -9220.329266 -13192.587143 -19765.308888    -23.244494
PR03 -10548.030063   5964.757781 -22388.296624     72.936328
PR04  -5911.855734  21347.674510 -12604.472991    176.737864
PR05   1785.193654  25105.212995   4081.978499    108.147750
PR07  10483.710925  -6919.728738  22252.151969     50.400068
PR08   5847.075516 -21482.865649  12539.534711    -69.554712
PR09  22260.331612  12501.013873    980.225407    105.420181
PR11   7740.446501  -8145.445756 -22895.066321     -7.865493
PR12 -10941.785034 -15515.911930 -17028.172651     25.177244
PR13 -21568.187737 -13340.147038  -2792.594995    -32.284205
PR14 -20190.799958  -2682.614123  15350.734829     24.367729
PR15  -6785.199078   8850.946077  22952.370083     90.901892
PR16  10801.136386  15290.537165  17342.863779     11.565606
PR17 -22675.945975   9416.472814   6982.927181    606.961016
PR18 -17994.739001  15176.633856  -9733.837085     68.024269
PR19  -5709.749926  13491.250036 -20877.731941   -222.763405
PR20  14251.817434   2997.746519 -20945.021797    -88.148681
PR21  22764.528095 -10186.633713  -5308.602159   -375.177827
PR22  17925.785779 -14845.062401  10489.281874     71.996250
PR24 -15007.847651  -2519.149624  20492.626713    148.595178
PR25  23087.500580  -8077.195971  -7206.849516     55.776794
EOF
